{
  "type": "FeatureCollection",
  "features": [
    {
      "type": "Feature",
      "properties": {
        "norad_id": 28890,
        "name": "BEIJING 1",
        "group": "dmc",
        "lat": -38.18454953551895,
        "lon": -80.3340614935891,
        "alt_km": 682.439068916352,
        "timestamp": "2025-12-04T17:48:39.839739+00:00",
        "meta_object_name": "BEIJING 1",
        "meta_object_id": "2005-043A",
        "meta_epoch": "2025-12-04T08:36:39.275424",
        "meta_mean_motion": 14.63354201,
        "meta_eccentricity": 0.00148951,
        "meta_inclination": 98.265,
        "meta_ra_of_asc_node": 105.8463,
        "meta_arg_of_pericenter": 166.8039,
        "meta_mean_anomaly": 193.3555,
        "meta_ephemeris_type": 0,
        "meta_classification_type": "U",
        "meta_norad_cat_id": 28890,
        "meta_element_set_no": 999,
        "meta_rev_at_epoch": 7215,
        "meta_bstar": 0.00017880916,
        "meta_mean_motion_dot": 8.76e-06,
        "meta_mean_motion_ddot": 0,
        "tle_line1": "1 28890U 05043A   25338.35878791  .00000876  00000+0  17881-3 0  9996",
        "tle_line2": "2 28890  98.2650 105.8463 0014895 166.8039 193.3555 14.63354201 72151"
      },
      "geometry": {
        "type": "Point",
        "coordinates": [
          -80.3340614935891,
          -38.18454953551895
        ]
      }
    },
    {
      "type": "Feature",
      "properties": {
        "norad_id": 33320,
        "name": "HUANJING 1A (HJ-1A)",
        "group": "dmc",
        "lat": 30.268818918806133,
        "lon": -37.125849097356,
        "alt_km": 604.5340484803637,
        "timestamp": "2025-12-04T17:48:39.839762+00:00",
        "meta_object_name": "HUANJING 1A (HJ-1A)",
        "meta_object_id": "2008-041A",
        "meta_epoch": "2025-12-04T07:57:37.473408",
        "meta_mean_motion": 14.83353044,
        "meta_eccentricity": 0.00206157,
        "meta_inclination": 97.6532,
        "meta_ra_of_asc_node": 326.9819,
        "meta_arg_of_pericenter": 60.5494,
        "meta_mean_anomaly": 299.7774,
        "meta_ephemeris_type": 0,
        "meta_classification_type": "U",
        "meta_norad_cat_id": 33320,
        "meta_element_set_no": 999,
        "meta_rev_at_epoch": 92951,
        "meta_bstar": 0.00042238216,
        "meta_mean_motion_dot": 3.424e-05,
        "meta_mean_motion_ddot": 0,
        "tle_line1": "1 33320U 08041A   25338.33168372  .00003424  00000+0  42238-3 0  9992",
        "tle_line2": "2 33320  97.6532 326.9819 0020615  60.5494 299.7774 14.83353044929511"
      },
      "geometry": {
        "type": "Point",
        "coordinates": [
          -37.125849097356,
          30.268818918806133
        ]
      }
    },
    {
      "type": "Feature",
      "properties": {
        "norad_id": 33321,
        "name": "HUANJING 1B (HJ-1B)",
        "group": "dmc",
        "lat": -82.1870182292001,
        "lon": 73.07849900808517,
        "alt_km": 653.9635173406041,
        "timestamp": "2025-12-04T17:48:39.839776+00:00",
        "meta_object_name": "HUANJING 1B (HJ-1B)",
        "meta_object_id": "2008-041B",
        "meta_epoch": "2025-12-04T06:53:21.063840",
        "meta_mean_motion": 14.8278785,
        "meta_eccentricity": 0.00381676,
        "meta_inclination": 97.6396,
        "meta_ra_of_asc_node": 330.6581,
        "meta_arg_of_pericenter": 102.4885,
        "meta_mean_anomaly": 258.0604,
        "meta_ephemeris_type": 0,
        "meta_classification_type": "U",
        "meta_norad_cat_id": 33321,
        "meta_element_set_no": 999,
        "meta_rev_at_epoch": 92952,
        "meta_bstar": 0.00028057516,
        "meta_mean_motion_dot": 2.246e-05,
        "meta_mean_motion_ddot": 0,
        "tle_line1": "1 33321U 08041B   25338.28704935  .00002246  00000+0  28058-3 0  9993",
        "tle_line2": "2 33321  97.6396 330.6581 0038167 102.4885 258.0604 14.82787850929525"
      },
      "geometry": {
        "type": "Point",
        "coordinates": [
          73.07849900808517,
          -82.1870182292001
        ]
      }
    },
    {
      "type": "Feature",
      "properties": {
        "norad_id": 33446,
        "name": "YAOGAN-4",
        "group": "dmc",
        "lat": -3.8484498334027273,
        "lon": 88.38404322179068,
        "alt_km": 634.2424750475984,
        "timestamp": "2025-12-04T17:48:39.839788+00:00",
        "meta_object_name": "YAOGAN-4",
        "meta_object_id": "2008-061A",
        "meta_epoch": "2025-12-04T05:38:47.404896",
        "meta_mean_motion": 14.82640914,
        "meta_eccentricity": 0.00143182,
        "meta_inclination": 97.9169,
        "meta_ra_of_asc_node": 268.4187,
        "meta_arg_of_pericenter": 351.7897,
        "meta_mean_anomaly": 8.3079,
        "meta_ephemeris_type": 0,
        "meta_classification_type": "U",
        "meta_norad_cat_id": 33446,
        "meta_element_set_no": 999,
        "meta_rev_at_epoch": 91677,
        "meta_bstar": 0.00043161091,
        "meta_mean_motion_dot": 3.43e-05,
        "meta_mean_motion_ddot": 0,
        "tle_line1": "1 33446U 08061A   25338.23527089  .00003430  00000+0  43161-3 0  9999",
        "tle_line2": "2 33446  97.9169 268.4187 0014318 351.7897   8.3079 14.82640914916772"
      },
      "geometry": {
        "type": "Point",
        "coordinates": [
          88.38404322179068,
          -3.8484498334027273
        ]
      }
    },
    {
      "type": "Feature",
      "properties": {
        "norad_id": 35681,
        "name": "DEIMOS-1",
        "group": "dmc",
        "lat": 4.104444658972866,
        "lon": -39.72456214688768,
        "alt_km": 647.5568702740129,
        "timestamp": "2025-12-04T17:48:39.839799+00:00",
        "meta_object_name": "DEIMOS-1",
        "meta_object_id": "2009-041A",
        "meta_epoch": "2025-12-04T08:52:34.162176",
        "meta_mean_motion": 14.7493322,
        "meta_eccentricity": 0.0002689,
        "meta_inclination": 97.7146,
        "meta_ra_of_asc_node": 139.3633,
        "meta_arg_of_pericenter": 95.19,
        "meta_mean_anomaly": 264.9616,
        "meta_ephemeris_type": 0,
        "meta_classification_type": "U",
        "meta_norad_cat_id": 35681,
        "meta_element_set_no": 999,
        "meta_rev_at_epoch": 87816,
        "meta_bstar": 0.0002145842,
        "meta_mean_motion_dot": 1.394e-05,
        "meta_mean_motion_ddot": 0,
        "tle_line1": "1 35681U 09041A   25338.36983984  .00001394  00000+0  21458-3 0  9997",
        "tle_line2": "2 35681  97.7146 139.3633 0002689  95.1900 264.9616 14.74933220878165"
      },
      "geometry": {
        "type": "Point",
        "coordinates": [
          -39.72456214688768,
          4.104444658972866
        ]
      }
    },
    {
      "type": "Feature",
      "properties": {
        "norad_id": 35683,
        "name": "UK-DMC 2",
        "group": "dmc",
        "lat": 8.2271783455603,
        "lon": -64.98505449984047,
        "alt_km": 644.8363734151972,
        "timestamp": "2025-12-04T17:48:39.839810+00:00",
        "meta_object_name": "UK-DMC 2",
        "meta_object_id": "2009-041C",
        "meta_epoch": "2025-12-04T08:53:55.830912",
        "meta_mean_motion": 14.75593799,
        "meta_eccentricity": 0.00013049,
        "meta_inclination": 97.8557,
        "meta_ra_of_asc_node": 113.5104,
        "meta_arg_of_pericenter": 102.4049,
        "meta_mean_anomaly": 257.7307,
        "meta_ephemeris_type": 0,
        "meta_classification_type": "U",
        "meta_norad_cat_id": 35683,
        "meta_element_set_no": 999,
        "meta_rev_at_epoch": 87783,
        "meta_bstar": 0.0003040417,
        "meta_mean_motion_dot": 2.025e-05,
        "meta_mean_motion_ddot": 0,
        "tle_line1": "1 35683U 09041C   25338.37078508  .00002025  00000+0  30404-3 0  9990",
        "tle_line2": "2 35683  97.8557 113.5104 0001304 102.4049 257.7307 14.75593799877834"
      },
      "geometry": {
        "type": "Point",
        "coordinates": [
          -64.98505449984047,
          8.2271783455603
        ]
      }
    },
    {
      "type": "Feature",
      "properties": {
        "norad_id": 40715,
        "name": "DMC3-FM1",
        "group": "dmc",
        "lat": -60.87936137049556,
        "lon": -139.7749063119108,
        "alt_km": 617.1604422755208,
        "timestamp": "2025-12-04T17:48:39.839821+00:00",
        "meta_object_name": "DMC3-FM1",
        "meta_object_id": "2015-032A",
        "meta_epoch": "2025-12-04T06:46:18.511680",
        "meta_mean_motion": 14.85418216,
        "meta_eccentricity": 0.00052578,
        "meta_inclination": 97.6699,
        "meta_ra_of_asc_node": 205.7825,
        "meta_arg_of_pericenter": 351.4004,
        "meta_mean_anomaly": 8.7121,
        "meta_ephemeris_type": 0,
        "meta_classification_type": "U",
        "meta_norad_cat_id": 40715,
        "meta_element_set_no": 999,
        "meta_rev_at_epoch": 56097,
        "meta_bstar": 0.00019707997,
        "meta_mean_motion_dot": 1.647e-05,
        "meta_mean_motion_ddot": 0,
        "tle_line1": "1 40715U 15032A   25338.28215870  .00001647  00000+0  19708-3 0  9997",
        "tle_line2": "2 40715  97.6699 205.7825 0005257 351.4004   8.7121 14.85418216560976"
      },
      "geometry": {
        "type": "Point",
        "coordinates": [
          -139.7749063119108,
          -60.87936137049556
        ]
      }
    },
    {
      "type": "Feature",
      "properties": {
        "norad_id": 40716,
        "name": "DMC3-FM2",
        "group": "dmc",
        "lat": 1.8481874776246425,
        "lon": 27.91306014922224,
        "alt_km": 619.1750480594119,
        "timestamp": "2025-12-04T17:48:39.839831+00:00",
        "meta_object_name": "DMC3-FM2",
        "meta_object_id": "2015-032B",
        "meta_epoch": "2025-12-04T07:18:42.987744",
        "meta_mean_motion": 14.85419661,
        "meta_eccentricity": 0.00059062,
        "meta_inclination": 97.6756,
        "meta_ra_of_asc_node": 207.242,
        "meta_arg_of_pericenter": 355.5347,
        "meta_mean_anomaly": 4.5815,
        "meta_ephemeris_type": 0,
        "meta_classification_type": "U",
        "meta_norad_cat_id": 40716,
        "meta_element_set_no": 999,
        "meta_rev_at_epoch": 56097,
        "meta_bstar": 0.00019725155,
        "meta_mean_motion_dot": 1.648e-05,
        "meta_mean_motion_ddot": 0,
        "tle_line1": "1 40716U 15032B   25338.30466421  .00001648  00000+0  19725-3 0  9991",
        "tle_line2": "2 40716  97.6756 207.2420 0005906 355.5347   4.5815 14.85419661560974"
      },
      "geometry": {
        "type": "Point",
        "coordinates": [
          27.91306014922224,
          1.8481874776246425
        ]
      }
    },
    {
      "type": "Feature",
      "properties": {
        "norad_id": 40717,
        "name": "DMC3-FM3",
        "group": "dmc",
        "lat": 61.75044154645639,
        "lon": -165.25576234145444,
        "alt_km": 604.8183734639597,
        "timestamp": "2025-12-04T17:48:39.839841+00:00",
        "meta_object_name": "DMC3-FM3",
        "meta_object_id": "2015-032C",
        "meta_epoch": "2025-12-04T07:49:46.756704",
        "meta_mean_motion": 14.85412293,
        "meta_eccentricity": 0.00052656,
        "meta_inclination": 97.6811,
        "meta_ra_of_asc_node": 208.8903,
        "meta_arg_of_pericenter": 357.7387,
        "meta_mean_anomaly": 2.3804,
        "meta_ephemeris_type": 0,
        "meta_classification_type": "U",
        "meta_norad_cat_id": 40717,
        "meta_element_set_no": 999,
        "meta_rev_at_epoch": 56098,
        "meta_bstar": 0.00015836254,
        "meta_mean_motion_dot": 1.313e-05,
        "meta_mean_motion_ddot": 0,
        "tle_line1": "1 40717U 15032C   25338.32623561  .00001313  00000+0  15836-3 0  9992",
        "tle_line2": "2 40717  97.6811 208.8903 0005265 357.7387   2.3804 14.85412293560985"
      },
      "geometry": {
        "type": "Point",
        "coordinates": [
          -165.25576234145444,
          61.75044154645639
        ]
      }
    }
  ]
}